NORAD_CAT_ID,OBJECT_NAME,OBJECT_TYPE,EPOCH,MEAN_MOTION,ECCENTRICITY,INCLINATION,RA_OF_ASC_NODE,ARG_OF_PERICENTER,MEAN_ANOMALY,BSTAR,MEAN_MOTION_DOT,MEAN_MOTION_DDOT,TLE_LINE0,TLE_LINE1,TLE_LINE2,SEMIMAJOR_AXIS,PERIOD,APOGEE,PERIGEE,DECAYED
53905.0,STARLINK-5003,PAYLOAD,2024-08-19 16:29:40,15.08849387,0.0001519,53.2186,339.7117,91.4349,268.6818,-0.00024456,-4.179e-05,0.0,0 STARLINK-5003,1 53905U 22119V   24232.68727490 -.00004179  00000-0 -24456-3 0  9990,2 53905  53.2186 339.7117 0001519  91.4349 268.6818 15.08849387105802,6917.852,95.437,540.768,538.666,0.0
53905.0,STARLINK-5003,PAYLOAD,2024-08-20 13:09:41,15.08845952,0.0001993,53.2186,335.8546,70.7501,289.3707,4.1445e-05,3.72e-06,0.0,0 STARLINK-5003,1 53905U 22119V   24233.54839813  .00000372  00000-0  41445-4 0  9996,2 53905  53.2186 335.8546 0001993  70.7501 289.3707 15.08845952106353,6917.862,95.437,541.106,538.348,0.0
53905.0,STARLINK-5003,PAYLOAD,2024-08-21 13:00:29,15.08830499,0.0001672,53.2182,331.3914,86.7033,273.4151,9.0174e-05,1.147e-05,0.0,0 STARLINK-5003,1 53905U 22119V   24234.54200904  .00001147  00000-0  90174-4 0  9994,2 53905  53.2182 331.3914 0001672  86.7033 273.4151 15.08830499106087,6917.909,95.438,540.931,538.618,0.0
